STARLINK-3703           
1 52101U 22029P   26068.34210791 -.00000807  00000+0 -32594-4 0  9996
2 52101  53.2165  90.8720 0001328 105.2571 254.8568 15.08838814220596
LEMUR-2-SIERRINI        
1 60579U 24149DR  26068.80891719  .00014386  00000+0  92040-3 0  9991
2 60579  97.6873 151.1225 0006580 147.8458 212.3173 15.08682764 85461
